{"type": "FeatureCollection", "features": [ {"type": "Feature", "properties": {"norad_id": 57401, "name": "TIANMU-1 09", "group": "weather", "lat": 78.92533202178967, "lon": -9.286991144900359, "alt_km": 469.9965747028882, "timestamp": "2025-12-08T05:48:08.691870+00:00", "meta": {"OBJECT_NAME": "TIANMU-1 09", "OBJECT_ID": "2023-101C", "EPOCH": "2025-12-07T21:35:17.299392", "MEAN_MOTION": 15.27975903, "ECCENTRICITY": 0.0006792, "INCLINATION": 97.2822, "RA_OF_ASC_NODE": 31.1712, "ARG_OF_PERICENTER": 96.8828, "MEAN_ANOMALY": 263.3185, "EPHEMERIS_TYPE": 0, "CLASSIFICATION_TYPE": "U", "NORAD_CAT_ID": 57401, "ELEMENT_SET_NO": 999, "REV_AT_EPOCH": 13241, "BSTAR": 0.0003756025, "MEAN_MOTION_DOT": 0.0001019, "MEAN_MOTION_DDOT": 0}, "tle": {"line1": "1 57401U 23101C   25341.89950578  .00010190  00000+0  37560-3 0  9994", "line2": "2 57401  97.2822  31.1712 0006792  96.8828 263.3185 15.27975903132416"}}, "geometry": {"type": "Point", "coordinates": [-9.286991144900359, 78.92533202178967]}}, {"type": "Feature", "properties": {"norad_id": 57402, "name": "TIANMU-1 10", "group": "weather", "lat": -72.2922669079301, "lon": -171.28734507950838, "alt_km": 494.6396539734624, "timestamp": "2025-12-08T05:48:08.691880+00:00", "meta": {"OBJECT_NAME": "TIANMU-1 10", "OBJECT_ID": "2023-101D", "EPOCH": "2025-12-07T22:24:31.161600", "MEAN_MOTION": 15.27968013, "ECCENTRICITY": 0.00085768, "INCLINATION": 97.2903, "RA_OF_ASC_NODE": 32.0492, "ARG_OF_PERICENTER": 97.1703, "MEAN_ANOMALY": 263.0512, "EPHEMERIS_TYPE": 0, "CLASSIFICATION_TYPE": "U", "NORAD_CAT_ID": 57402, "ELEMENT_SET_NO": 999, "REV_AT_EPOCH": 13241, "BSTAR": 0.00035442259, "MEAN_MOTION_DOT": 9.612e-05, "MEAN_MOTION_DDOT": 0}, "tle": {"line1": "1 57402U 23101D   25341.93369400  .00009612  00000+0  35442-3 0  9992", "line2": "2 57402  97.2903  32.0492 0008576  97.1703 263.0512 15.27968013132415"}}, "geometry": {"type": "Point", "coordinates": [-171.28734507950838, -72.2922669079301]}}, {"type": "Feature", "properties": {"norad_id": 57490, "name": "FENGYUN 3F", "group": "weather", "lat": 75.72950060304272, "lon": -92.33291310901302, "alt_km": 818.0423592312309, "timestamp": "2025-12-08T05:48:08.691890+00:00", "meta": {"OBJECT_NAME": "FENGYUN 3F", "OBJECT_ID": "2023-111A", "EPOCH": "2025-12-07T22:33:43.613568", "MEAN_MOTION": 14.19891587, "ECCENTRICITY": 6.671e-05, "INCLINATION": 98.7091, "RA_OF_ASC_NODE": 50.3108, "ARG_OF_PERICENTER": 92.6094, "MEAN_ANOMALY": 267.5158, "EPHEMERIS_TYPE": 0, "CLASSIFICATION_TYPE": "U", "NORAD_CAT_ID": 57490, "ELEMENT_SET_NO": 999, "REV_AT_EPOCH": 12172, "BSTAR": 0.00010281082, "MEAN_MOTION_DOT": 1.75e-06, "MEAN_MOTION_DDOT": 0}, "tle": {"line1": "1 57490U 23111A   25341.94008812  .00000175  00000+0  10281-3 0  9997", "line2": "2 57490  98.7091  50.3108 0000667  92.6094 267.5158 14.19891587121727"}}, "geometry": {"type": "Point", "coordinates": [-92.33291310901302, 75.72950060304272]}}, {"type": "Feature", "properties": {"norad_id": 58584, "name": "ARKTIKA-M 2", "group": "weather", "lat": 40.921121981057624, "lon": -30.59239283766552, "alt_km": 21069.24753710337, "timestamp": "2025-12-08T05:48:08.691902+00:00", "meta": {"OBJECT_NAME": "ARKTIKA-M 2", "OBJECT_ID": "2023-198A", "EPOCH": "2025-12-06T20:18:59.579424", "MEAN_MOTION": 2.00604738, "ECCENTRICITY": 0.68644701, "INCLINATION": 63.2244, "RA_OF_ASC_NODE": 175.5329, "ARG_OF_PERICENTER": 268.127, "MEAN_ANOMALY": 18.8311, "EPHEMERIS_TYPE": 0, "CLASSIFICATION_TYPE": "U", "NORAD_CAT_ID": 58584, "ELEMENT_SET_NO": 999, "REV_AT_EPOCH": 1446, "BSTAR": 0, "MEAN_MOTION_DOT": 1.78e-06, "MEAN_MOTION_DDOT": 0}, "tle": {"line1": "1 58584U 23198A   25340.84652291  .00000178  00000+0  00000+0 0  9998", "line2": "2 58584  63.2244 175.5329 6864470 268.1270  18.8311  2.00604738 14463"}}, "geometry": {"type": "Point", "coordinates": [-30.59239283766552, 40.921121981057624]}}, {"type": "Feature", "properties": {"norad_id": 58645, "name": "TIANMU-1 11", "group": "weather", "lat": 50.430987112321255, "lon": -169.05635817183156, "alt_km": 493.0787927014262, "timestamp": "2025-12-08T05:48:08.691913+00:00", "meta": {"OBJECT_NAME": "TIANMU-1 11", "OBJECT_ID": "2023-205A", "EPOCH": "2025-12-07T22:56:15.475488", "MEAN_MOTION": 15.24510864, "ECCENTRICITY": 0.00083613, "INCLINATION": 97.3604, "RA_OF_ASC_NODE": 1.6631, "ARG_OF_PERICENTER": 329.6292, "MEAN_ANOMALY": 30.446, "EPHEMERIS_TYPE": 0, "CLASSIFICATION_TYPE": "U", "NORAD_CAT_ID": 58645, "ELEMENT_SET_NO": 999, "REV_AT_EPOCH": 10836, "BSTAR": 0.00034034783, "MEAN_MOTION_DOT": 8.309e-05, "MEAN_MOTION_DDOT": 0}, "tle": {"line1": "1 58645U 23205A   25341.95573467  .00008309  00000+0  34035-3 0  9998", "line2": "2 58645  97.3604   1.6631 0008361 329.6292  30.4460 15.24510864108368"}}, "geometry": {"type": "Point", "coordinates": [-169.05635817183156, 50.430987112321255]}}, {"type": "Feature", "properties": {"norad_id": 58646, "name": "TIANMU-1 12", "group": "weather", "lat": -16.88797463427517, "lon": 3.999836137231655, "alt_km": 493.79705832821855, "timestamp": "2025-12-08T05:48:08.691924+00:00", "meta": {"OBJECT_NAME": "TIANMU-1 12", "OBJECT_ID": "2023-205B", "EPOCH": "2025-12-07T23:34:31.459584", "MEAN_MOTION": 15.24427565, "ECCENTRICITY": 0.00062146, "INCLINATION": 97.3592, "RA_OF_ASC_NODE": 1.4963, "ARG_OF_PERICENTER": 313.9322, "MEAN_ANOMALY": 46.1402, "EPHEMERIS_TYPE": 0, "CLASSIFICATION_TYPE": "U", "NORAD_CAT_ID": 58646, "ELEMENT_SET_NO": 999, "REV_AT_EPOCH": 10835, "BSTAR": 0.00033327875, "MEAN_MOTION_DOT": 8.111e-05, "MEAN_MOTION_DDOT": 0}, "tle": {"line1": "1 58646U 23205B   25341.98230856  .00008111  00000+0  33328-3 0  9999", "line2": "2 58646  97.3592   1.4963 0006214 313.9322  46.1402 15.24427565108350"}}, "geometry": {"type": "Point", "coordinates": [3.999836137231655, -16.88797463427517]}}, {"type": "Feature", "properties": {"norad_id": 58647, "name": "TIANMU-1 13", "group": "weather", "lat": 21.44136142663612, "lon": -175.13942139823357, "alt_km": 495.10348912877635, "timestamp": "2025-12-08T05:48:08.691934+00:00", "meta": {"OBJECT_NAME": "TIANMU-1 13", "OBJECT_ID": "2023-205C", "EPOCH": "2025-12-07T22:48:30.316032", "MEAN_MOTION": 15.24433399, "ECCENTRICITY": 0.00061293, "INCLINATION": 97.362, "RA_OF_ASC_NODE": 1.6637, "ARG_OF_PERICENTER": 289.1044, "MEAN_ANOMALY": 70.953, "EPHEMERIS_TYPE": 0, "CLASSIFICATION_TYPE": "U", "NORAD_CAT_ID": 58647, "ELEMENT_SET_NO": 999, "REV_AT_EPOCH": 10834, "BSTAR": 0.00035090525, "MEAN_MOTION_DOT": 8.545e-05, "MEAN_MOTION_DDOT": 0}, "tle": {"line1": "1 58647U 23205C   25341.95035088  .00008545  00000+0  35091-3 0  9997", "line2": "2 58647  97.3620   1.6637 0006129 289.1044  70.9530 15.24433399108341"}}, "geometry": {"type": "Point", "coordinates": [-175.13942139823357, 21.44136142663612]}}, {"type": "Feature", "properties": {"norad_id": 58648, "name": "TIANMU-1 14", "group": "weather", "lat": -68.37984939742459, "lon": 162.28187540165052, "alt_km": 496.31505064465364, "timestamp": "2025-12-08T05:48:08.691949+00:00", "meta": {"OBJECT_NAME": "TIANMU-1 14", "OBJECT_ID": "2023-205D", "EPOCH": "2025-12-07T22:24:31.505472", "MEAN_MOTION": 15.2441772, "ECCENTRICITY": 0.00070092, "INCLINATION": 97.3552, "RA_OF_ASC_NODE": 1.0007, "ARG_OF_PERICENTER": 294.201, "MEAN_ANOMALY": 65.8495, "EPHEMERIS_TYPE": 0, "CLASSIFICATION_TYPE": "U", "NORAD_CAT_ID": 58648, "ELEMENT_SET_NO": 999, "REV_AT_EPOCH": 10834, "BSTAR": 0.00036283337, "MEAN_MOTION_DOT": 8.836e-05, "MEAN_MOTION_DDOT": 0}, "tle": {"line1": "1 58648U 23205D   25341.93369798  .00008836  00000+0  36283-3 0  9991", "line2": "2 58648  97.3552   1.0007 0007009 294.2010  65.8495 15.24417720108342"}}, "geometry": {"type": "Point", "coordinates": [162.28187540165052, -68.37984939742459]}}, {"type": "Feature", "properties": {"norad_id": 58660, "name": "TIANMU-1 19", "group": "weather", "lat": 82.51128647929865, "lon": -2.9642142821756603, "alt_km": 477.91033394125134, "timestamp": "2025-12-08T05:48:08.691960+00:00", "meta": {"OBJECT_NAME": "TIANMU-1 19", "OBJECT_ID": "2023-208A", "EPOCH": "2025-12-07T21:32:46.787136", "MEAN_MOTION": 15.27715543, "ECCENTRICITY": 0.00040252, "INCLINATION": 97.4395, "RA_OF_ASC_NODE": 92.9452, "ARG_OF_PERICENTER": 274.9457, "MEAN_ANOMALY": 85.1323, "EPHEMERIS_TYPE": 0, "CLASSIFICATION_TYPE": "U", "NORAD_CAT_ID": 58660, "ELEMENT_SET_NO": 999, "REV_AT_EPOCH": 10808, "BSTAR": 0.00043837701, "MEAN_MOTION_DOT": 0.00011806, "MEAN_MOTION_DDOT": 0}, "tle": {"line1": "1 58660U 23208A   25341.89776374  .00011806  00000+0  43838-3 0  9990", "line2": "2 58660  97.4395  92.9452 0004025 274.9457  85.1323 15.27715543108083"}}, "geometry": {"type": "Point", "coordinates": [-2.9642142821756603, 82.51128647929865]}}, {"type": "Feature", "properties": {"norad_id": 58661, "name": "TIANMU-1 20", "group": "weather", "lat": 33.83346577204212, "lon": -81.24785030991096, "alt_km": 480.3082154574304, "timestamp": "2025-12-08T05:48:08.691970+00:00", "meta": {"OBJECT_NAME": "TIANMU-1 20", "OBJECT_ID": "2023-208B", "EPOCH": "2025-12-07T21:18:45.915552", "MEAN_MOTION": 15.28906254, "ECCENTRICITY": 0.00063524, "INCLINATION": 97.4332, "RA_OF_ASC_NODE": 93.3784, "ARG_OF_PERICENTER": 286.4577, "MEAN_ANOMALY": 73.5965, "EPHEMERIS_TYPE": 0, "CLASSIFICATION_TYPE": "U", "NORAD_CAT_ID": 58661, "ELEMENT_SET_NO": 999, "REV_AT_EPOCH": 10815, "BSTAR": 0.00042859993, "MEAN_MOTION_DOT": 0.00011973, "MEAN_MOTION_DDOT": 0}, "tle": {"line1": "1 58661U 23208B   25341.88803143  .00011973  00000+0  42860-3 0  9994", "line2": "2 58661  97.4332  93.3784 0006352 286.4577  73.5965 15.28906254108157"}}, "geometry": {"type": "Point", "coordinates": [-81.24785030991096, 33.83346577204212]}}]}